OBJECT_NAME,OBJECT_ID,EPOCH,MEAN_MOTION,ECCENTRICITY,INCLINATION,RA_OF_ASC_NODE,ARG_OF_PERICENTER,MEAN_ANOMALY,EPHEMERIS_TYPE,CLASSIFICATION_TYPE,NORAD_CAT_ID,ELEMENT_SET_NO,REV_AT_EPOCH,BSTAR,MEAN_MOTION_DOT,MEAN_MOTION_DDOT
SNAP-3 JIMI,2015-058M,2025-03-24T17:34:41.132064,14.95305526,.0154803,64.7670,194.6700,222.1104,136.8033,0,U,40975,999,4685,.17189E-2,.24096E-3,0
PROPCUBE 1 (FLORA),2015-058N,2025-03-26T03:10:04.419840,14.85655746,.0173378,64.7740,240.4959,222.2185,136.5468,0,U,40976,999,4961,.10776E-2,.12155E-3,0
SINOD-D 3,2015-058P,2025-03-25T16:25:38.609760,14.89110457,.0164148,64.7725,231.5603,221.7009,137.1496,0,U,40977,999,4785,.14015E-2,.1696E-3,0
APSTAR-9,2015-059A,2025-03-25T22:12:38.341728,1.00269656,.0001335,0.0496,25.4383,334.4587,298.8721,0,U,40982,999,3462,0,-.269E-5,0
TURKSAT 4B,2015-060A,2025-03-25T16:37:46.667136,1.00272008,.000211,0.0229,169.8884,202.2300,110.7099,0,U,40984,999,3460,0,.112E-5,0
NAVSTAR 75 (USA 265),2015-062A,2025-03-24T13:29:35.064960,2.00566648,.0102963,56.6354,48.1862,228.6306,130.4770,0,U,41019,999,6881,0,-.18E-6,0
ZHONGXING-2C,2015-063A,2025-03-25T22:01:37.773120,1.00271055,.0002058,0.1856,96.0332,6.0495,155.3540,0,U,41021,999,3450,0,-.326E-5,0
YAOGAN-28,2015-064A,2025-03-26T04:38:30.668064,15.23915314,.0011841,97.2441,231.2406,291.1476,68.8495,0,U,41026,999,52242,.96531E-3,.23349E-3,0
GSAT-15,2015-065A,2025-03-26T02:28:38.597664,1.00271222,.0002482,0.0237,253.3809,143.4149,277.6599,0,U,41028,999,3437,0,-.26E-5,0
BADR-7 (ARABSAT-6B),2015-065B,2025-03-25T20:48:38.831040,1.00274640,.0002986,0.0453,236.5107,16.7552,268.4692,0,U,41029,999,3427,0,.142E-5,0
LAOSAT 1,2015-067A,2025-03-25T22:08:45.640608,1.00268915,.0001738,0.0502,11.0825,324.0187,309.2002,0,U,41034,999,3436,0,-.346E-5,0
TELSTAR 12V,2015-068A,2025-03-26T03:26:38.915808,1.00269592,.0002528,0.0255,175.9157,191.4970,213.0911,0,U,41036,999,3423,0,-.122E-5,0
YAOGAN-29,2015-069A,2025-03-26T04:15:24.866496,14.82508121,.0002681,98.0419,107.1825,66.2312,293.9181,0,U,41038,999,50423,.22395E-3,.1744E-4,0
ELEKTRO-L 2,2015-074A,2025-03-25T19:45:05.909184,1.00271306,.0002627,5.5585,76.0287,231.6718,157.5672,0,U,41105,999,3401,0,-.115E-5,0
COSMOS 2513,2015-075A,2025-03-26T03:47:38.638176,1.00272413,.0002356,0.0487,104.0265,302.2165,274.7562,0,U,41121,999,3410,0,-.141E-5,0
KENT RIDGE 1,2015-077B,2025-03-25T22:40:44.539680,15.19204481,.0009021,14.9818,349.8765,50.6671,309.4449,0,U,41167,999,51287,.39452E-3,.9312E-4,0
TELEOS-1,2015-077D,2025-03-25T11:13:32.841408,15.63722923,.0003343,14.9768,174.8390,51.3715,308.6912,0,U,41169,999,51438,.15062E-2,.151118E-2,0
DAMPE,2015-078A,2025-03-26T05:29:02.236704,15.29089033,.0011201,97.4475,84.2804,217.8953,142.1500,0,U,41173,999,51605,.14898E-3,.4136E-4,0
GSAT0209 (GALILEO 12),2015-079A,2025-03-24T17:10:23.313504,1.70474529,.0005113,55.5627,113.6028,312.8020,47.2315,0,U,41174,999,5711,0,.55E-6,0
GSAT0208 (GALILEO 11),2015-079B,2025-03-25T12:31:48.002304,1.70474426,.0004566,55.5615,113.5779,313.6963,46.3453,0,U,41175,999,5770,0,.59E-6,0
