SNAP-3 JIMI             
1 40975U 15058M   25083.73242051  .00024096  00000+0  17189-2 0  9994
2 40975  64.7670 194.6700 0154803 222.1104 136.8033 14.95305526 46854
PROPCUBE 1 (FLORA)      
1 40976U 15058N   25085.13199560  .00012155  00000+0  10776-2 0  9995
2 40976  64.7740 240.4959 0173378 222.2185 136.5468 14.85655746 49614
SINOD-D 3               
1 40977U 15058P   25084.68447465  .00016960  00000+0  14015-2 0  9993
2 40977  64.7725 231.5603 0164148 221.7009 137.1496 14.89110457 47850
GSAT0209 (GALILEO 12)   
1 41174U 15079A   25083.71554761  .00000055  00000+0  00000+0 0  9991
2 41174  55.5627 113.6028 0005113 312.8020  47.2315  1.70474529 57111
GSAT0208 (GALILEO 11)   
1 41175U 15079B   25084.52208336  .00000059  00000+0  00000+0 0  9990
2 41175  55.5615 113.5779 0004566 313.6963  46.3453  1.70474426 57701
APSTAR-9                
1 40982U 15059A   25084.92544377 -.00000269  00000+0  00000+0 0  9999
2 40982   0.0496  25.4383 0001335 334.4587 298.8721  1.00269656 34622
TURKSAT 4B              
1 40984U 15060A   25084.69290124  .00000112  00000+0  00000+0 0  9991
2 40984   0.0229 169.8884 0002110 202.2300 110.7099  1.00272008 34607
ZHONGXING-2C            
1 41021U 15063A   25084.91779830 -.00000326  00000+0  00000+0 0  9996
2 41021   0.1856  96.0332 0002058   6.0495 155.3540  1.00271055 34508
GSAT-15                 
1 41028U 15065A   25085.10322451 -.00000260  00000+0  00000+0 0  9997
2 41028   0.0237 253.3809 0002482 143.4149 277.6599  1.00271222 34370
BADR-7 (ARABSAT-6B)     
1 41029U 15065B   25084.86711610  .00000142  00000+0  00000+0 0  9997
2 41029   0.0453 236.5107 0002986  16.7552 268.4692  1.00274640 34272
LAOSAT 1                
1 41034U 15067A   25084.92275047 -.00000346  00000+0  00000+0 0  9998
2 41034   0.0502  11.0825 0001738 324.0187 309.2002  1.00268915 34366
TELSTAR 12V             
1 41036U 15068A   25085.14350597 -.00000122  00000+0  00000+0 0  9992
2 41036   0.0255 175.9157 0002528 191.4970 213.0911  1.00269592 34234
ELEKTRO-L 2             
1 41105U 15074A   25084.82298506 -.00000115  00000+0  00000+0 0  9993
2 41105   5.5585  76.0287 0002627 231.6718 157.5672  1.00271306 34017
COSMOS 2513             
1 41121U 15075A   25085.15808609 -.00000141  00000+0  00000+0 0  9999
2 41121   0.0487 104.0265 0002356 302.2165 274.7562  1.00272413 34104
GPS BIIF-11 (PRN 10)    
1 41019U 15062A   25083.56221140 -.00000018  00000+0  00000+0 0  9996
2 41019  56.6354  48.1862 0102963 228.6306 130.4770  2.00566648 68815
YAOGAN-28               
1 41026U 15064A   25085.19341051  .00023349  00000+0  96531-3 0  9990
2 41026  97.2441 231.2406 0011841 291.1476  68.8495 15.23915314522424
YAOGAN-29               
1 41038U 15069A   25085.17737114  .00001744  00000+0  22395-3 0  9997
2 41038  98.0419 107.1825 0002681  66.2312 293.9181 14.82508121504239
KENT RIDGE 1            
1 41167U 15077B   25084.94495995  .00009312  00000+0  39452-3 0  9992
2 41167  14.9818 349.8765 0009021  50.6671 309.4449 15.19204481512872
TELEOS-1                
1 41169U 15077D   25084.46774122  .00151118  00000+0  15062-2 0  9995
2 41169  14.9768 174.8390 0003343  51.3715 308.6912 15.63722923514385
DAMPE                   
1 41173U 15078A   25085.22849811  .00004136  00000+0  14898-3 0  9998
2 41173  97.4475  84.2804 0011201 217.8953 142.1500 15.29089033516050
